[Satellite]
VERSION=1.1
NAME=COSMOS 1953
NICKNAME=COSMOS 1953
TLE1=1 19210U 88050A   19316.90116306 -.00000064  00000-0 -64210-5 0  9990
TLE2=2 19210  82.5161 260.9655 0014695 135.7508 224.4897 15.05855958688925
STATUS=0
